CCSDS_OMM_VERS = 2.0
CREATION_DATE  = 
ORIGINATOR     = 

OBJECT_NAME    = STARLINK-36687
OBJECT_ID      = 2026-025U
CENTER_NAME    = EARTH
REF_FRAME      = TEME
TIME_SYSTEM    = UTC
MEAN_ELEMENT_THEORY = SGP/SGP4

EPOCH          = 2026-02-11T16:00:01.999584
MEAN_MOTION    = 16.11702960
ECCENTRICITY   = .00011721
INCLINATION    = 97.2823
RA_OF_ASC_NODE = 152.5708
ARG_OF_PERICENTER = 62.8343
MEAN_ANOMALY   = 104.5958

EPHEMERIS_TYPE = 0
CLASSIFICATION_TYPE = U
NORAD_CAT_ID   = 67711
ELEMENT_SET_NO = 999
REV_AT_EPOCH   = 182
BSTAR          = -.60698681E-3
MEAN_MOTION_DOT = -.62978E-2
MEAN_MOTION_DDOT = .16066235E-3

CCSDS_OMM_VERS = 2.0
CREATION_DATE  = 
ORIGINATOR     = 

OBJECT_NAME    = STARLINK-36705
OBJECT_ID      = 2026-025V
CENTER_NAME    = EARTH
REF_FRAME      = TEME
TIME_SYSTEM    = UTC
MEAN_ELEMENT_THEORY = SGP/SGP4

EPOCH          = 2026-02-13T23:57:24.746976
MEAN_MOTION    = 16.11293436
ECCENTRICITY   = .00103727
INCLINATION    = 97.2794
RA_OF_ASC_NODE = 155.1509
ARG_OF_PERICENTER = 244.3385
MEAN_ANOMALY   = 115.6829

EPHEMERIS_TYPE = 0
CLASSIFICATION_TYPE = U
NORAD_CAT_ID   = 67712
ELEMENT_SET_NO = 999
REV_AT_EPOCH   = 219
BSTAR          = .83753103E-3
MEAN_MOTION_DOT = .846898E-2
MEAN_MOTION_DDOT = .41696515E-3

CCSDS_OMM_VERS = 2.0
CREATION_DATE  = 
ORIGINATOR     = 

OBJECT_NAME    = STARLINK-36708
OBJECT_ID      = 2026-025W
CENTER_NAME    = EARTH
REF_FRAME      = TEME
TIME_SYSTEM    = UTC
MEAN_ELEMENT_THEORY = SGP/SGP4

EPOCH          = 2026-02-14T01:25:21.874944
MEAN_MOTION    = 16.11640300
ECCENTRICITY   = .00094015
INCLINATION    = 97.2804
RA_OF_ASC_NODE = 155.2182
ARG_OF_PERICENTER = 242.2135
MEAN_ANOMALY   = 117.8197

EPHEMERIS_TYPE = 0
CLASSIFICATION_TYPE = U
NORAD_CAT_ID   = 67713
ELEMENT_SET_NO = 999
REV_AT_EPOCH   = 220
BSTAR          = .75812363E-3
MEAN_MOTION_DOT = .784142E-2
MEAN_MOTION_DDOT = .35323069E-3

CCSDS_OMM_VERS = 2.0
CREATION_DATE  = 
ORIGINATOR     = 

OBJECT_NAME    = STARLINK-36702
OBJECT_ID      = 2026-025X
CENTER_NAME    = EARTH
REF_FRAME      = TEME
TIME_SYSTEM    = UTC
MEAN_ELEMENT_THEORY = SGP/SGP4

EPOCH          = 2026-02-14T04:25:02.977536
MEAN_MOTION    = 16.11322342
ECCENTRICITY   = .00103609
INCLINATION    = 97.2796
RA_OF_ASC_NODE = 155.3562
ARG_OF_PERICENTER = 234.3607
MEAN_ANOMALY   = 125.6713

EPHEMERIS_TYPE = 0
CLASSIFICATION_TYPE = U
NORAD_CAT_ID   = 67714
ELEMENT_SET_NO = 999
REV_AT_EPOCH   = 222
BSTAR          = .83222856E-3
MEAN_MOTION_DOT = .843192E-2
MEAN_MOTION_DDOT = .41309618E-3

CCSDS_OMM_VERS = 2.0
CREATION_DATE  = 
ORIGINATOR     = 

OBJECT_NAME    = STARLINK-36718
OBJECT_ID      = 2026-025Y
CENTER_NAME    = EARTH
REF_FRAME      = TEME
TIME_SYSTEM    = UTC
MEAN_ELEMENT_THEORY = SGP/SGP4

EPOCH          = 2026-02-11T16:00:01.999584
MEAN_MOTION    = 16.12688008
ECCENTRICITY   = .00012611
INCLINATION    = 97.2821
RA_OF_ASC_NODE = 152.5741
ARG_OF_PERICENTER = 60.2520
MEAN_ANOMALY   = 113.3753

EPHEMERIS_TYPE = 0
CLASSIFICATION_TYPE = U
NORAD_CAT_ID   = 67715
ELEMENT_SET_NO = 999
REV_AT_EPOCH   = 166
BSTAR          = -.49254598E-3
MEAN_MOTION_DOT = -.546345E-2
MEAN_MOTION_DDOT = .12503996E-3

CCSDS_OMM_VERS = 2.0
CREATION_DATE  = 
ORIGINATOR     = 

OBJECT_NAME    = STARLINK-36715
OBJECT_ID      = 2026-025Z
CENTER_NAME    = EARTH
REF_FRAME      = TEME
TIME_SYSTEM    = UTC
MEAN_ELEMENT_THEORY = SGP/SGP4

EPOCH          = 2026-02-11T16:00:01.999584
MEAN_MOTION    = 16.12622621
ECCENTRICITY   = .00013943
INCLINATION    = 97.2820
RA_OF_ASC_NODE = 152.5731
ARG_OF_PERICENTER = 46.7177
MEAN_ANOMALY   = 126.0886

EPHEMERIS_TYPE = 0
CLASSIFICATION_TYPE = U
NORAD_CAT_ID   = 67716
ELEMENT_SET_NO = 999
REV_AT_EPOCH   = 172
BSTAR          = -.41086984E-3
MEAN_MOTION_DOT = -.454156E-2
MEAN_MOTION_DDOT = .88565282E-4

CCSDS_OMM_VERS = 2.0
CREATION_DATE  = 
ORIGINATOR     = 

OBJECT_NAME    = STARLINK-36385
OBJECT_ID      = 2026-025AA
CENTER_NAME    = EARTH
REF_FRAME      = TEME
TIME_SYSTEM    = UTC
MEAN_ELEMENT_THEORY = SGP/SGP4

EPOCH          = 2026-02-14T05:55:16.198464
MEAN_MOTION    = 16.11147886
ECCENTRICITY   = .00108456
INCLINATION    = 97.2809
RA_OF_ASC_NODE = 155.4238
ARG_OF_PERICENTER = 243.3595
MEAN_ANOMALY   = 116.6579

EPHEMERIS_TYPE = 0
CLASSIFICATION_TYPE = U
NORAD_CAT_ID   = 67717
ELEMENT_SET_NO = 999
REV_AT_EPOCH   = 223
BSTAR          = .81575492E-3
MEAN_MOTION_DOT = .818079E-2
MEAN_MOTION_DDOT = .38461522E-3

CCSDS_OMM_VERS = 2.0
CREATION_DATE  = 
ORIGINATOR     = 

OBJECT_NAME    = CZ-2F DEB
OBJECT_ID      = 2026-024E
CENTER_NAME    = EARTH
REF_FRAME      = TEME
TIME_SYSTEM    = UTC
MEAN_ELEMENT_THEORY = SGP/SGP4

EPOCH          = 2026-02-14T06:39:11.532384
MEAN_MOTION    = 15.15133208
ECCENTRICITY   = .02663014
INCLINATION    = 50.3149
RA_OF_ASC_NODE = 132.9226
ARG_OF_PERICENTER = 188.0457
MEAN_ANOMALY   = 171.6185

EPHEMERIS_TYPE = 0
CLASSIFICATION_TYPE = U
NORAD_CAT_ID   = 67718
ELEMENT_SET_NO = 999
REV_AT_EPOCH   = 107
BSTAR          = .54842848E-2
MEAN_MOTION_DOT = .268714E-2
MEAN_MOTION_DDOT = 0

CCSDS_OMM_VERS = 2.0
CREATION_DATE  = 
ORIGINATOR     = 

OBJECT_NAME    = CZ-2F DEB
OBJECT_ID      = 2026-024F
CENTER_NAME    = EARTH
REF_FRAME      = TEME
TIME_SYSTEM    = UTC
MEAN_ELEMENT_THEORY = SGP/SGP4

EPOCH          = 2026-02-14T07:10:04.859904
MEAN_MOTION    = 14.96119491
ECCENTRICITY   = .03381823
INCLINATION    = 49.7904
RA_OF_ASC_NODE = 133.8627
ARG_OF_PERICENTER = 177.7821
MEAN_ANOMALY   = 182.4714

EPHEMERIS_TYPE = 0
CLASSIFICATION_TYPE = U
NORAD_CAT_ID   = 67719
ELEMENT_SET_NO = 999
REV_AT_EPOCH   = 73
BSTAR          = .51858422E-2
MEAN_MOTION_DOT = .200106E-2
MEAN_MOTION_DDOT = 0

CCSDS_OMM_VERS = 2.0
CREATION_DATE  = 
ORIGINATOR     = 

OBJECT_NAME    = CZ-2F DEB
OBJECT_ID      = 2026-024G
CENTER_NAME    = EARTH
REF_FRAME      = TEME
TIME_SYSTEM    = UTC
MEAN_ELEMENT_THEORY = SGP/SGP4

EPOCH          = 2026-02-14T05:52:04.908000
MEAN_MOTION    = 14.93432976
ECCENTRICITY   = .0348978
INCLINATION    = 49.8302
RA_OF_ASC_NODE = 134.2457
ARG_OF_PERICENTER = 174.2430
MEAN_ANOMALY   = 186.2686

EPHEMERIS_TYPE = 0
CLASSIFICATION_TYPE = U
NORAD_CAT_ID   = 67720
ELEMENT_SET_NO = 999
REV_AT_EPOCH   = 104
BSTAR          = .54903797E-2
MEAN_MOTION_DOT = .206547E-2
MEAN_MOTION_DDOT = 0

CCSDS_OMM_VERS = 2.0
CREATION_DATE  = 
ORIGINATOR     = 

OBJECT_NAME    = 2026-027A
OBJECT_ID      = 2026-027A
CENTER_NAME    = EARTH
REF_FRAME      = TEME
TIME_SYSTEM    = UTC
MEAN_ELEMENT_THEORY = SGP/SGP4

EPOCH          = 2026-02-14T07:03:38.670048
MEAN_MOTION    = 15.17244308
ECCENTRICITY   = .00092191
INCLINATION    = 97.4871
RA_OF_ASC_NODE = 174.5669
ARG_OF_PERICENTER = 282.7821
MEAN_ANOMALY   = 77.2382

EPHEMERIS_TYPE = 0
CLASSIFICATION_TYPE = U
NORAD_CAT_ID   = 67746
ELEMENT_SET_NO = 999
REV_AT_EPOCH   = 31
BSTAR          = .48236316E-3
MEAN_MOTION_DOT = .9545E-4
MEAN_MOTION_DDOT = 0

CCSDS_OMM_VERS = 2.0
CREATION_DATE  = 
ORIGINATOR     = 

OBJECT_NAME    = 2026-027B
OBJECT_ID      = 2026-027B
CENTER_NAME    = EARTH
REF_FRAME      = TEME
TIME_SYSTEM    = UTC
MEAN_ELEMENT_THEORY = SGP/SGP4

EPOCH          = 2026-02-14T07:03:27.045792
MEAN_MOTION    = 15.17345951
ECCENTRICITY   = .00093859
INCLINATION    = 97.4865
RA_OF_ASC_NODE = 174.5668
ARG_OF_PERICENTER = 285.4313
MEAN_ANOMALY   = 74.5884

EPHEMERIS_TYPE = 0
CLASSIFICATION_TYPE = U
NORAD_CAT_ID   = 67747
ELEMENT_SET_NO = 999
REV_AT_EPOCH   = 31
BSTAR          = .48390732E-3
MEAN_MOTION_DOT = .9605E-4
MEAN_MOTION_DDOT = 0

CCSDS_OMM_VERS = 2.0
CREATION_DATE  = 
ORIGINATOR     = 

OBJECT_NAME    = 2027-027C
OBJECT_ID      = 2027-027C
CENTER_NAME    = EARTH
REF_FRAME      = TEME
TIME_SYSTEM    = UTC
MEAN_ELEMENT_THEORY = SGP/SGP4

EPOCH          = 2026-02-14T07:03:09.792576
MEAN_MOTION    = 15.17490199
ECCENTRICITY   = .00098241
INCLINATION    = 97.4876
RA_OF_ASC_NODE = 174.5676
ARG_OF_PERICENTER = 288.6327
MEAN_ANOMALY   = 71.3840

EPHEMERIS_TYPE = 0
CLASSIFICATION_TYPE = U
NORAD_CAT_ID   = 67748
ELEMENT_SET_NO = 999
REV_AT_EPOCH   = 31
BSTAR          = .33545454E-3
MEAN_MOTION_DOT = .6663E-4
MEAN_MOTION_DDOT = 0

CCSDS_OMM_VERS = 2.0
CREATION_DATE  = 
ORIGINATOR     = 

OBJECT_NAME    = 2026-027D
OBJECT_ID      = 2026-027D
CENTER_NAME    = EARTH
REF_FRAME      = TEME
TIME_SYSTEM    = UTC
MEAN_ELEMENT_THEORY = SGP/SGP4

EPOCH          = 2026-02-14T02:18:04.482144
MEAN_MOTION    = 15.17627565
ECCENTRICITY   = .00096795
INCLINATION    = 97.4873
RA_OF_ASC_NODE = 174.3721
ARG_OF_PERICENTER = 293.4458
MEAN_ANOMALY   = 66.5758

EPHEMERIS_TYPE = 0
CLASSIFICATION_TYPE = U
NORAD_CAT_ID   = 67749
ELEMENT_SET_NO = 999
REV_AT_EPOCH   = 28
BSTAR          = .51979985E-3
MEAN_MOTION_DOT = .10408E-3
MEAN_MOTION_DDOT = 0

CCSDS_OMM_VERS = 2.0
CREATION_DATE  = 
ORIGINATOR     = 

OBJECT_NAME    = 2026-027E
OBJECT_ID      = 2026-027E
CENTER_NAME    = EARTH
REF_FRAME      = TEME
TIME_SYSTEM    = UTC
MEAN_ELEMENT_THEORY = SGP/SGP4

EPOCH          = 2026-02-14T02:18:02.895840
MEAN_MOTION    = 15.17644057
ECCENTRICITY   = .00088275
INCLINATION    = 97.4882
RA_OF_ASC_NODE = 174.3726
ARG_OF_PERICENTER = 295.7178
MEAN_ANOMALY   = 64.3143

EPHEMERIS_TYPE = 0
CLASSIFICATION_TYPE = U
NORAD_CAT_ID   = 67750
ELEMENT_SET_NO = 999
REV_AT_EPOCH   = 28
BSTAR          = .46703944E-3
MEAN_MOTION_DOT = .9346E-4
MEAN_MOTION_DDOT = 0

